[{"OBJECT_NAME":"STARLINK-33797","OBJECT_ID":"2025-069R","EPOCH":"2026-03-09T11:16:23.053728","MEAN_MOTION":15.30232262,"ECCENTRICITY":0.00013127,"INCLINATION":53.1596,"RA_OF_ASC_NODE":143.3135,"ARG_OF_PERICENTER":99.1189,"MEAN_ANOMALY":260.996,"EPHEMERIS_TYPE":0,"CLASSIFICATION_TYPE":"U","NORAD_CAT_ID":63448,"ELEMENT_SET_NO":999,"REV_AT_EPOCH":5332,"BSTAR":0.001132807,"MEAN_MOTION_DOT":0.00033376,"MEAN_MOTION_DDOT":0},{"OBJECT_NAME":"SCS-01 M","OBJECT_ID":"2025-100M","EPOCH":"2026-03-09T23:50:15.541152","MEAN_MOTION":15.31880861,"ECCENTRICITY":0.00078021,"INCLINATION":97.3725,"RA_OF_ASC_NODE":145.6908,"ARG_OF_PERICENTER":292.3826,"MEAN_ANOMALY":67.6588,"EPHEMERIS_TYPE":0,"CLASSIFICATION_TYPE":"U","NORAD_CAT_ID":63993,"ELEMENT_SET_NO":999,"REV_AT_EPOCH":4565,"BSTAR":0.0012010051,"MEAN_MOTION_DOT":0.00037061,"MEAN_MOTION_DDOT":0}]
